[Satellite]
VERSION=1.1
NAME=STARLINK-4773
NICKNAME=STARLINK-4773
TLE1=1 53838U 22114W   22290.91667824 -.00055918  00000+0 -39604-3 0  9999
TLE2=2 53838  53.2142 115.8975 0001087  64.9371  80.7159 15.73236308  1300
STATUS=0
